[{"CCSDS_OMM_VERS":"2.0","COMMENT":"GENERATED VIA SPACE-TRACK.ORG API","CREATION_DATE":"2021-04-01T18:02:04","ORIGINATOR":"18 SPCS","OBJECT_NAME":"TBA - TO BE ASSIGNED","OBJECT_ID":"","CENTER_NAME":"EARTH","REF_FRAME":"TEME","TIME_SYSTEM":"UTC","MEAN_ELEMENT_THEORY":"SGP4","EPOCH":"2018-09-29T22:25:57.668736","MEAN_MOTION":"12.57327458","ECCENTRICITY":"0.14560950","INCLINATION":"66.2857","RA_OF_ASC_NODE":"75.8178","ARG_OF_PERICENTER":"171.7784","MEAN_ANOMALY":"191.0218","EPHEMERIS_TYPE":"0","CLASSIFICATION_TYPE":"U","NORAD_CAT_ID":"81215","ELEMENT_SET_NO":"999","REV_AT_EPOCH":"10354","BSTAR":"0.21077000000000","MEAN_MOTION_DOT":"0.06412137","MEAN_MOTION_DDOT":"0.0051975000000","SEMIMAJOR_AXIS":"7812.132","PERIOD":"114.529","APOAPSIS":"2571.518","PERIAPSIS":"296.476","OBJECT_TYPE":"TBA","RCS_SIZE":null,"COUNTRY_CODE":null,"LAUNCH_DATE":null,"SITE":null,"DECAY_DATE":null,"FILE":"3003335","GP_ID":"174607031","TLE_LINE0":"0 TBA - TO BE ASSIGNED","TLE_LINE1":"1 81215U          18272.93469524 +.06412137 +51975-2 +21077+0 0  9998","TLE_LINE2":"2 81215 066.2857 075.8178 1456095 171.7784 191.0218 12.57327458103543"},{"CCSDS_OMM_VERS":"2.0","COMMENT":"GENERATED VIA SPACE-TRACK.ORG API","CREATION_DATE":"2021-11-04T17:50:53","ORIGINATOR":"18 SPCS","OBJECT_NAME":"TBA - TO BE ASSIGNED","OBJECT_ID":"1981-053","CENTER_NAME":"EARTH","REF_FRAME":"TEME","TIME_SYSTEM":"UTC","MEAN_ELEMENT_THEORY":"SGP4","EPOCH":"2021-11-04T12:50:25.076544","MEAN_MOTION":"13.79729563","ECCENTRICITY":"0.00232820","INCLINATION":"82.9304","RA_OF_ASC_NODE":"49.8020","ARG_OF_PERICENTER":"116.4817","MEAN_ANOMALY":"243.8733","EPHEMERIS_TYPE":"0","CLASSIFICATION_TYPE":"U","NORAD_CAT_ID":"81219","ELEMENT_SET_NO":"999","REV_AT_EPOCH":"40065","BSTAR":"0.00048919000000","MEAN_MOTION_DOT":"0.00000522","MEAN_MOTION_DDOT":"0.0000000000000","SEMIMAJOR_AXIS":"7342.983","PERIOD":"104.368","APOAPSIS":"981.944","PERIAPSIS":"947.752","OBJECT_TYPE":"TBA","RCS_SIZE":null,"COUNTRY_CODE":null,"LAUNCH_DATE":null,"SITE":null,"DECAY_DATE":null,"FILE":"3200777","GP_ID":"188874171","TLE_LINE0":"0 TBA - TO BE ASSIGNED","TLE_LINE1":"1 81219U 81053    21308.53501246 +.00000522 +00000+0 +48919-3 0  9990","TLE_LINE2":"2 81219  82.9304  49.8020 0023282 116.4817 243.8733 13.79729563400654"},{"CCSDS_OMM_VERS":"2.0","COMMENT":"GENERATED VIA SPACE-TRACK.ORG API","CREATION_DATE":"2021-11-04T17:50:53","ORIGINATOR":"18 SPCS","OBJECT_NAME":"TBA - TO BE ASSIGNED","OBJECT_ID":"","CENTER_NAME":"EARTH","REF_FRAME":"TEME","TIME_SYSTEM":"UTC","MEAN_ELEMENT_THEORY":"SGP4","EPOCH":"2021-11-04T12:56:57.812064","MEAN_MOTION":"14.17720582","ECCENTRICITY":"0.01162270","INCLINATION":"98.8578","RA_OF_ASC_NODE":"243.3647","ARG_OF_PERICENTER":"349.7230","MEAN_ANOMALY":"10.1570","EPHEMERIS_TYPE":"0","CLASSIFICATION_TYPE":"U","NORAD_CAT_ID":"81221","ELEMENT_SET_NO":"999","REV_AT_EPOCH":"31130","BSTAR":"0.00193740000000","MEAN_MOTION_DOT":"0.00004175","MEAN_MOTION_DDOT":"0.0000000000000","SEMIMAJOR_AXIS":"7211.209","PERIOD":"101.571","APOAPSIS":"916.888","PERIAPSIS":"749.260","OBJECT_TYPE":"TBA","RCS_SIZE":null,"COUNTRY_CODE":null,"LAUNCH_DATE":null,"SITE":null,"DECAY_DATE":null,"FILE":"3200777","GP_ID":"188874013","TLE_LINE0":"0 TBA - TO BE ASSIGNED","TLE_LINE1":"1 81221U          21308.53955801 +.00004175 +00000+0 +19374-2 0  9996","TLE_LINE2":"2 81221  98.8578 243.3647 0116227 349.7230  10.1570 14.17720582311306"},{"CCSDS_OMM_VERS":"2.0","COMMENT":"GENERATED VIA SPACE-TRACK.ORG API","CREATION_DATE":"2021-11-04T17:50:53","ORIGINATOR":"18 SPCS","OBJECT_NAME":"TBA - TO BE ASSIGNED","OBJECT_ID":"","CENTER_NAME":"EARTH","REF_FRAME":"TEME","TIME_SYSTEM":"UTC","MEAN_ELEMENT_THEORY":"SGP4","EPOCH":"2021-11-04T08:30:17.091072","MEAN_MOTION":"14.20240482","ECCENTRICITY":"0.00879610","INCLINATION":"70.5341","RA_OF_ASC_NODE":"330.5332","ARG_OF_PERICENTER":"34.6116","MEAN_ANOMALY":"326.0687","EPHEMERIS_TYPE":"0","CLASSIFICATION_TYPE":"U","NORAD_CAT_ID":"81228","ELEMENT_SET_NO":"999","REV_AT_EPOCH":"41205","BSTAR":"0.00180470000000","MEAN_MOTION_DOT":"0.00003961","MEAN_MOTION_DDOT":"0.0000000000000","SEMIMAJOR_AXIS":"7202.677","PERIOD":"101.391","APOAPSIS":"887.897","PERIAPSIS":"761.186","OBJECT_TYPE":"TBA","RCS_SIZE":null,"COUNTRY_CODE":null,"LAUNCH_DATE":null,"SITE":null,"DECAY_DATE":null,"FILE":"3200777","GP_ID":"188874212","TLE_LINE0":"0 TBA - TO BE ASSIGNED","TLE_LINE1":"1 81228U          21308.35436448 +.00003961 +00000+0 +18047-2 0  9992","TLE_LINE2":"2 81228  70.5341 330.5332 0087961  34.6116 326.0687 14.20240482412055"},{"CCSDS_OMM_VERS":"2.0","COMMENT":"GENERATED VIA SPACE-TRACK.ORG API","CREATION_DATE":"2020-09-05T17:46:50","ORIGINATOR":"18 SPCS","OBJECT_NAME":"TBA - TO BE ASSIGNED","OBJECT_ID":null,"CENTER_NAME":"EARTH","REF_FRAME":"TEME","TIME_SYSTEM":"UTC","MEAN_ELEMENT_THEORY":"SGP4","EPOCH":"2020-09-04T08:31:08.895648","MEAN_MOTION":"14.77800540","ECCENTRICITY":"0.00066940","INCLINATION":"97.9203","RA_OF_ASC_NODE":"296.1572","ARG_OF_PERICENTER":"40.5932","MEAN_ANOMALY":"319.5369","EPHEMERIS_TYPE":"0","CLASSIFICATION_TYPE":"U","NORAD_CAT_ID":"81229","ELEMENT_SET_NO":"999","REV_AT_EPOCH":"101","BSTAR":"-0.01463100000000","MEAN_MOTION_DOT":"-0.00103538","MEAN_MOTION_DDOT":"0.0000000000000","SEMIMAJOR_AXIS":"7014.412","PERIOD":"97.442","APOAPSIS":"640.972","PERIAPSIS":"631.581","OBJECT_TYPE":"TBA","RCS_SIZE":null,"COUNTRY_CODE":null,"LAUNCH_DATE":null,"SITE":null,"DECAY_DATE":null,"FILE":"2814959","GP_ID":"160764882","TLE_LINE0":"0 TBA - TO BE ASSIGNED","TLE_LINE1":"1 81229U          20248.35496407 -.00103538 +00000+0 -14631-1 0  9993","TLE_LINE2":"2 81229  97.9203 296.1572 0006694  40.5932 319.5369 14.77800540  1018"},{"CCSDS_OMM_VERS":"2.0","COMMENT":"GENERATED VIA SPACE-TRACK.ORG API","CREATION_DATE":"2020-11-06T18:33:10","ORIGINATOR":"18 SPCS","OBJECT_NAME":"TBA - TO BE ASSIGNED","OBJECT_ID":null,"CENTER_NAME":"EARTH","REF_FRAME":"TEME","TIME_SYSTEM":"UTC","MEAN_ELEMENT_THEORY":"SGP4","EPOCH":"2020-11-06T08:54:11.388960","MEAN_MOTION":"14.79840620","ECCENTRICITY":"0.00019260","INCLINATION":"97.9203","RA_OF_ASC_NODE":"358.3337","ARG_OF_PERICENTER":"104.2878","MEAN_ANOMALY":"255.8614","EPHEMERIS_TYPE":"0","CLASSIFICATION_TYPE":"U","NORAD_CAT_ID":"81237","ELEMENT_SET_NO":"999","REV_AT_EPOCH":"992","BSTAR":"0.00012353000000","MEAN_MOTION_DOT":"0.00000879","MEAN_MOTION_DDOT":"0.0000000000000","SEMIMAJOR_AXIS":"7007.964","PERIOD":"97.307","APOAPSIS":"631.178","PERIAPSIS":"628.479","OBJECT_TYPE":"TBA","RCS_SIZE":null,"COUNTRY_CODE":null,"LAUNCH_DATE":null,"SITE":null,"DECAY_DATE":null,"FILE":"2873391","GP_ID":"164970365","TLE_LINE0":"0 TBA - TO BE ASSIGNED","TLE_LINE1":"1 81237U 94074    20311.37096515 +.00000879 +00000-0 +12353-3 0  9999","TLE_LINE2":"2 81237 097.9203 358.3337 0001926 104.2878 255.8614 14.79840620009925"},{"CCSDS_OMM_VERS":"2.0","COMMENT":"GENERATED VIA SPACE-TRACK.ORG API","CREATION_DATE":"2020-04-09T18:12:43","ORIGINATOR":"18 SPCS","OBJECT_NAME":"TBA - TO BE ASSIGNED","OBJECT_ID":null,"CENTER_NAME":"EARTH","REF_FRAME":"TEME","TIME_SYSTEM":"UTC","MEAN_ELEMENT_THEORY":"SGP4","EPOCH":"2020-04-09T09:15:23.254848","MEAN_MOTION":"14.12420905","ECCENTRICITY":"0.00394800","INCLINATION":"81.2240","RA_OF_ASC_NODE":"135.8741","ARG_OF_PERICENTER":"56.4844","MEAN_ANOMALY":"304.0090","EPHEMERIS_TYPE":"0","CLASSIFICATION_TYPE":"U","NORAD_CAT_ID":"81241","ELEMENT_SET_NO":"999","REV_AT_EPOCH":"18110","BSTAR":"0.00022205000000","MEAN_MOTION_DOT":"0.00000425","MEAN_MOTION_DDOT":"0.0000000000000","SEMIMAJOR_AXIS":"7229.236","PERIOD":"101.952","APOAPSIS":"879.642","PERIAPSIS":"822.560","OBJECT_TYPE":"TBA","RCS_SIZE":null,"COUNTRY_CODE":null,"LAUNCH_DATE":null,"SITE":null,"DECAY_DATE":null,"FILE":"2731277","GP_ID":"151898776","TLE_LINE0":"0 TBA - TO BE ASSIGNED","TLE_LINE1":"1 81241U          20100.38568582 +.00000425 +00000+0 +22205-3 0  9998","TLE_LINE2":"2 81241  81.2240 135.8741 0039480  56.4844 304.0090 14.12420905181104"},{"CCSDS_OMM_VERS":"2.0","COMMENT":"GENERATED VIA SPACE-TRACK.ORG API","CREATION_DATE":"2021-11-04T17:50:53","ORIGINATOR":"18 SPCS","OBJECT_NAME":"TBA - TO BE ASSIGNED","OBJECT_ID":"1981-053","CENTER_NAME":"EARTH","REF_FRAME":"TEME","TIME_SYSTEM":"UTC","MEAN_ELEMENT_THEORY":"SGP4","EPOCH":"2021-11-04T12:36:25.586496","MEAN_MOTION":"14.49280643","ECCENTRICITY":"0.00293950","INCLINATION":"83.2487","RA_OF_ASC_NODE":"20.6569","ARG_OF_PERICENTER":"233.6822","MEAN_ANOMALY":"126.1662","EPHEMERIS_TYPE":"0","CLASSIFICATION_TYPE":"U","NORAD_CAT_ID":"81247","ELEMENT_SET_NO":"999","REV_AT_EPOCH":"41854","BSTAR":"0.00681240000000","MEAN_MOTION_DOT":"0.00026219","MEAN_MOTION_DDOT":"0.0000000000000","SEMIMAJOR_AXIS":"7106.136","PERIOD":"99.360","APOAPSIS":"748.889","PERIAPSIS":"707.112","OBJECT_TYPE":"TBA","RCS_SIZE":null,"COUNTRY_CODE":null,"LAUNCH_DATE":null,"SITE":null,"DECAY_DATE":null,"FILE":"3200777","GP_ID":"188874109","TLE_LINE0":"0 TBA - TO BE ASSIGNED","TLE_LINE1":"1 81247U 81053    21308.52529614 +.00026219 +00000+0 +68124-2 0  9999","TLE_LINE2":"2 81247  83.2487  20.6569 0029395 233.6822 126.1662 14.49280643418545"}]